#dP2023  6 21  0  0  0.00000000      96 __u+U IGS14 FIT  IAC
## 2267 259200.00000000   900.00000000 60116 0.0000000000000
+  118   C06C07C08C09C10C11C12C13C14C16C19C20C21C22C23C24C25
+        C26C27C28C29C30C32C33C34C35C36C37C38C39C40C41C42C43
+        C44C45C46E02E03E04E07E08E09E10E11E12E13E14E15E18E19
+        E21E24E25E26E27E30E31E33E34E36G01G02G03G04G05G06G07
+        G08G09G10G11G12G13G14G15G16G17G18G19G20G21G22G23G24
+        G25G26G27G28G29G30G31G32J02J03J04R01R02R03R04R05R07
+        R08R09R11R12R13R14R15R16R17R18R19R20R21R22R24R25  0
++         7  8  7  7  9  7  6  7  7  7  6  6  6  6  6  6  6
++         6  6  6  6  6  6  6  6  6  6  6  6  6  6  6  6  6
++         5  6  6  4  4  5  4  4  4  5  4  5  4  5  4  4  5
++         4  4  4  4  4  4  4  4  4  4  3  3  3  3  4  4  4
++         6  4  3  4  3  4  3  3  4  4  3  4  4  3  4  3  3
++         3  4  4  4  4  3  4  3  9  9  9  7  6  6  7  7  7
++         7  7  7  7  8  7  7  7  7  7  8  8  7  7  7  8  0
%c M  cc GPS ccc cccc cccc cccc cccc ccccc ccccc ccccc ccccc
%c cc cc ccc ccc cccc cccc cccc cccc ccccc ccccc ccccc ccccc
%f  1.2500000  1.025000000  0.00000000000  0.000000000000000
%f  0.0000000  0.000000000  0.00000000000  0.000000000000000
%i    0    0    0    0      0      0      0      0         0
%i    0    0    0    0      0      0      0      0         0
/* INFORMATION & ANALYSIS CENTER (IAC)            FINAL DATA
/* S/V CLOCKS ARE ALIGNED TO GNSS TIME                      
/* G:C1WC2W R:C1PC2P E:C1XC5X C:C2IC6I J:C1CC2S             
/* PCV:IGS20_2247 OL/AL:FES2004  NONE     YN ORB:CoN CLK:CoN
*  2023 06 21 13 15  0.00000000
PC06  -2185.498306  35081.998202  23516.570629   -174.095500
PC07 -12154.196865  26562.228456 -30415.430760   -206.083407
PC08 -16322.840652  37153.348103  11112.908857    452.793682
PC09   4483.894702  39393.863449  15560.207915    508.077405
PC10  -4580.387410  27155.934110 -31667.473629    -92.253176
PC11 -17996.351033 -21179.558312  -2593.735102    685.803705
PC12  -5424.259597 -23099.589196  14727.869147    729.294607
PC13  -9916.529434  37065.051165  17291.819758    300.659962
PC14 -18348.703514  -9951.731587 -18537.406751    444.076659
PC16  -2987.067530  34134.208760  25013.400308     34.985406
PC19  25010.282164   4131.222386  11659.801752   -926.637668
PC20  10393.611882  13560.913457  22067.473542    488.402453
PC21  11720.608288 -15542.332051 -19968.901408   -925.728385
PC22  25963.698309  -8168.956464  -6079.039350   -430.838490
PC23 -18153.536055  12492.219542  17132.381835   -965.012737
PC24  -2082.667461 -23689.035728  14614.465667     87.436454
PC25 -14934.267453  -6590.180303  22628.262970    151.966982
PC26  10059.364733 -26037.607308   -786.554566   -137.890243
PC27  -2140.615176  19589.289890 -19786.822438    158.413635
PC28 -15734.514665   5267.344846 -22438.348173    117.759876
PC29  21731.913508  13374.410400  11284.409082    137.014240
PC30  13647.434904  23390.087444  -6790.486524     -1.414020
PC32 -11722.542243  15648.340514  19933.779268   -546.458162
PC33 -25029.692434  -4016.767939 -11691.770791   -898.991793
PC34 -14558.049486 -23151.961354   5485.373531    197.986193
PC35  15956.662005  -5322.370911  22256.767761    603.634022
PC36  14426.311777   7730.384844 -22573.463015   -370.978310
PC37 -11294.825336  25442.133309   1829.511997   -786.825114
PC38 -19842.167355  37003.953413   3076.883047     86.579005
PC39  -5645.600596  30505.890494  28700.944041     -3.426790
PC40 -17254.148210  20281.258722 -32777.069893    -26.924935
PC41 -26210.000553   7929.926488   5471.543211   -916.796104
PC42  -8974.327597 -14033.664471 -22351.252092   -640.855694
PC43 -21679.841424 -14041.011433 -10553.560129     27.209816
PC44   1674.057099 -19597.962583  19767.212036    145.002487
PC45  18032.870631 -13025.651905 -16854.818841   -113.096587
PC46   3105.603234  22813.799976 -15739.268444    -63.168485
PE02  20616.723139   2741.131463 -21066.759865     45.337433
PE03  27465.630058  10964.015403  -1038.646598    -28.540748
PE04 -23509.223371   3425.346047  17671.940445   -149.705385
PE07   5900.544092 -15958.191569 -24212.407492    -54.309254
PE08  23660.205630  -3100.189097 -17499.972591   -102.464152
PE09  -6037.913917  15754.305673  24327.578878    -57.881925
PE10 -10266.637314  19684.703222 -19589.348012   -542.850601
PE11  -4238.244901  26978.516972 -11452.847247   2283.171261
PE12 -14363.869890  10036.121776 -23869.967623   -588.449967
PE13   4613.281299 -26605.383001  12114.772242    -19.299920
PE14 -20638.440302  10048.763392 -22269.376923    260.410782
PE15  14382.280211  -9632.253918  24007.505799    -31.161827
PE18   6569.805582 -14497.887647  18902.671074    207.582609
PE19 -26718.180100 -12658.391335  -1465.359989  -2249.253500
PE21  -4662.281110 -16915.541446  23839.995956   -536.280432
PE24 -15462.990878  21993.244048 -12377.437610   -167.246429
PE25   4304.141940  17111.771186 -23758.834972   -607.114832
PE26  -8161.606072 -27475.782631  -7399.725601    140.606407
PE27  14845.147757 -22094.892909  12955.151802    -80.185522
PE30  25542.466526 -13745.405807  -5929.285650   -273.464040
PE31 -25398.873318  14193.856385   5456.004266   -526.358596
PE33 -15578.563840 -12868.794803 -21631.335980   -442.877868
PE34  15622.983591  12693.245412  21686.322115    -51.998724
PE36   7716.227195  27784.446556   6696.190467    -74.568161
PG01  13400.293391  -7825.883353  21152.232157    177.056844
PG02  15229.768066  -1710.925010  22200.558009   -583.685322
PG03  22945.257777 -12542.426266   4128.501168   -262.376807
PG04  19843.508108  -3404.424533 -17369.422279     74.371824
PG05 -20000.778486    -85.166707 -17711.975343   -131.959107
PG06  -5329.534696 -25428.349046  -5207.976523    583.778289
PG07   6966.656051 -22014.032516 -12219.168956    146.354763
PG08  25122.515512   5166.557383   7571.892041   -128.449590
PG09  10971.025863 -11587.512419 -21310.474572   -130.567319
PG10  -2783.857947  17898.861372  19489.351560    -42.079463
PG11 -12661.036750 -15439.973071 -17529.566934   -244.394823
PG12 -23983.955489   8892.743494   6714.926529   -391.319874
PG13 -22938.299528 -13470.405226   1810.708594    536.985692
PG14   6299.654935 -18987.537427  17408.646225     97.805348
PG15 -25407.687440  -2012.282714   7466.502640     50.905262
PG16  17784.145906   5350.213525 -19457.781293   -489.186295
PG17  -5359.698813 -17876.249282  19286.260914    719.041958
PG18  -5394.232739  23833.131791 -10209.086564   -316.269203
PG19 -13235.190541 -18735.554175  13434.417429    333.566203
PG20 -13544.663189  -8095.734383 -21308.905428    426.810509
PG21  15867.786065   2499.091592  21803.460149    152.913992
PG22  15658.415466  18391.959451  11673.898723    501.297476
PG23 -14281.762457  19576.097562  10693.408093     35.342935
PG24 -15289.770064   3267.205504  21101.942585   -232.402146
PG25 -19322.602412  17565.131906  -4309.352619    451.251689
PG26   8177.568689  13681.427799 -21342.234479    238.527160
PG27  23034.373670  13298.794223  -3405.155466     12.092826
PG28   5346.274448  25821.780351  -3219.468148     83.560554
PG29 -13543.293138   8778.315748 -21168.059875   -603.481730
PG30    378.815050 -26202.151496  -3206.692200   -509.577455
PG31  11193.346758  19430.091673 -14068.141692   -218.606155
PG32   9026.746283  17834.835427  17769.211688   -505.059302
PJ02 -36191.260893  21085.226157   -659.542012     -0.699368
PJ03 -18643.568567  26014.079541 -22883.726254      7.113158
PJ04 -28259.408705  29694.943656  16322.070886     95.671123
PR01 -22581.419458   5048.131458  10758.657844     59.868845
PR02  -7014.059365  10189.999741  22343.616914    -22.670714
PR03  12173.473728   9883.776823  20184.744259     80.100007
PR04  24169.355672   4185.187210   7048.084212    192.055234
PR05  23200.523044  -3691.922827  -9950.822420    114.532106
PR07 -12913.871313  -9686.381839 -19691.932724     58.522352
PR08 -24266.728072  -3920.722755  -6700.928369    -71.342235
PR09  10183.682384 -22745.850709   5257.989623    127.020908
PR11 -11291.433539  -2181.880269  22783.423078    -85.167773
PR12 -16253.249917  15327.769104  12329.537126     28.347023
PR13 -11523.716554  22518.252908  -3304.699438    -36.311993
PR14    977.960679  16599.845402 -19335.079923     24.834854
PR15  11988.014387   1099.377246 -22463.680298     88.425224
PR16  16059.603302 -15268.981253 -12586.685501     15.875560
PR17  11690.101537  22638.716027   -628.451640    640.997259
PR18  14973.352001  14105.038777  15124.058335     87.723522
PR19  11266.009603    -63.842256  22876.943377   -237.062925
PR20   -366.028580 -18634.548561  17395.914635    -95.142513
PR21 -12110.566128 -22454.132735   -775.100680    -16.918514
PR22 -14712.409345 -13662.795179 -15704.901072     83.135409
PR24   1134.562215  19154.494336 -16788.627719    -12.959149
PR25 -10606.461282 -23199.928346    736.563477     58.671961
EOF
